{"type": "FeatureCollection", "features": [ {"type": "Feature", "properties": {"norad_id": 35982, "name": "COSMOS 2251 DEB", "group": "cosmos-2251-debris", "lat": -2.3024950890916602, "lon": -42.8185914332473, "alt_km": 644.5902582619283, "timestamp": "2025-12-27T22:26:48.997441+00:00", "meta": {"OBJECT_NAME": "COSMOS 2251 DEB", "OBJECT_ID": "1993-036AVY", "EPOCH": "2025-12-27T04:24:12.024000", "MEAN_MOTION": 14.62841816, "ECCENTRICITY": 0.00646581, "INCLINATION": 74.0588, "RA_OF_ASC_NODE": 319.2785, "ARG_OF_PERICENTER": 21.4972, "MEAN_ANOMALY": 338.8887, "EPHEMERIS_TYPE": 0, "CLASSIFICATION_TYPE": "U", "NORAD_CAT_ID": 35982, "ELEMENT_SET_NO": 999, "REV_AT_EPOCH": 86377, "BSTAR": 0.00083484035, "MEAN_MOTION_DOT": 4.366e-05, "MEAN_MOTION_DDOT": 0}, "tle": {"line1": "1 35982U 93036AVY 25361.18347250  .00004366  00000+0  83484-3 0  9993", "line2": "2 35982  74.0588 319.2785 0064658  21.4972 338.8887 14.62841816863777"}}, "geometry": {"type": "Point", "coordinates": [-42.8185914332473, -2.3024950890916602]}}, {"type": "Feature", "properties": {"norad_id": 35987, "name": "COSMOS 2251 DEB", "group": "cosmos-2251-debris", "lat": -1.716762983938994, "lon": -62.13684261337349, "alt_km": 734.5836105052913, "timestamp": "2025-12-27T22:26:48.997451+00:00", "meta": {"OBJECT_NAME": "COSMOS 2251 DEB", "OBJECT_ID": "1993-036AWD", "EPOCH": "2025-12-27T02:29:30.400512", "MEAN_MOTION": 14.43218044, "ECCENTRICITY": 0.00464782, "INCLINATION": 73.9999, "RA_OF_ASC_NODE": 299.9031, "ARG_OF_PERICENTER": 61.1887, "MEAN_ANOMALY": 299.3924, "EPHEMERIS_TYPE": 0, "CLASSIFICATION_TYPE": "U", "NORAD_CAT_ID": 35987, "ELEMENT_SET_NO": 999, "REV_AT_EPOCH": 61272, "BSTAR": 0.0012323895, "MEAN_MOTION_DOT": 4.175e-05, "MEAN_MOTION_DDOT": 0}, "tle": {"line1": "1 35987U 93036AWD 25361.10382408  .00004175  00000+0  12324-2 0  9996", "line2": "2 35987  73.9999 299.9031 0046478  61.1887 299.3924 14.43218044612720"}}, "geometry": {"type": "Point", "coordinates": [-62.13684261337349, -1.716762983938994]}}, {"type": "Feature", "properties": {"norad_id": 35989, "name": "COSMOS 2251 DEB", "group": "cosmos-2251-debris", "lat": 66.61961275368843, "lon": -62.65634856779372, "alt_km": 763.4478407150473, "timestamp": "2025-12-27T22:26:48.997461+00:00", "meta": {"OBJECT_NAME": "COSMOS 2251 DEB", "OBJECT_ID": "1993-036AWF", "EPOCH": "2025-12-27T10:24:57.289824", "MEAN_MOTION": 14.37121425, "ECCENTRICITY": 0.0022613, "INCLINATION": 74.0378, "RA_OF_ASC_NODE": 256.8103, "ARG_OF_PERICENTER": 335.5662, "MEAN_ANOMALY": 24.4417, "EPHEMERIS_TYPE": 0, "CLASSIFICATION_TYPE": "U", "NORAD_CAT_ID": 35989, "ELEMENT_SET_NO": 999, "REV_AT_EPOCH": 87390, "BSTAR": 0.00021574, "MEAN_MOTION_DOT": 6.17e-06, "MEAN_MOTION_DDOT": 0}, "tle": {"line1": "1 35989U 93036AWF 25361.43399641  .00000617  00000+0  21574-3 0  9996", "line2": "2 35989  74.0378 256.8103 0022613 335.5662  24.4417 14.37121425873903"}}, "geometry": {"type": "Point", "coordinates": [-62.65634856779372, 66.61961275368843]}}, {"type": "Feature", "properties": {"norad_id": 35993, "name": "COSMOS 2251 DEB", "group": "cosmos-2251-debris", "lat": 50.943840372002285, "lon": -35.79338279940144, "alt_km": 665.4328821195704, "timestamp": "2025-12-27T22:26:48.997471+00:00", "meta": {"OBJECT_NAME": "COSMOS 2251 DEB", "OBJECT_ID": "1993-036AWK", "EPOCH": "2025-12-21T03:59:29.501088", "MEAN_MOTION": 14.65356197, "ECCENTRICITY": 0.0028516, "INCLINATION": 74.0154, "RA_OF_ASC_NODE": 316.5577, "ARG_OF_PERICENTER": 143.4068, "MEAN_ANOMALY": 216.9056, "EPHEMERIS_TYPE": 0, "CLASSIFICATION_TYPE": "U", "NORAD_CAT_ID": 35993, "ELEMENT_SET_NO": 999, "REV_AT_EPOCH": 60566, "BSTAR": 0.00046927088, "MEAN_MOTION_DOT": 2.519e-05, "MEAN_MOTION_DDOT": 0}, "tle": {"line1": "1 35993U 93036AWK 25355.16631367  .00002519  00000+0  46927-3 0  9990", "line2": "2 35993  74.0154 316.5577 0028516 143.4068 216.9056 14.65356197605663"}}, "geometry": {"type": "Point", "coordinates": [-35.79338279940144, 50.943840372002285]}}, {"type": "Feature", "properties": {"norad_id": 35996, "name": "COSMOS 2251 DEB", "group": "cosmos-2251-debris", "lat": 20.46645447587156, "lon": 78.19699540230876, "alt_km": 581.974438799627, "timestamp": "2025-12-27T22:26:48.997480+00:00", "meta": {"OBJECT_NAME": "COSMOS 2251 DEB", "OBJECT_ID": "1993-036AWN", "EPOCH": "2025-12-15T22:25:06.327264", "MEAN_MOTION": 15.09228347, "ECCENTRICITY": 0.00876626, "INCLINATION": 74.0159, "RA_OF_ASC_NODE": 96.8248, "ARG_OF_PERICENTER": 187.0066, "MEAN_ANOMALY": 172.9909, "EPHEMERIS_TYPE": 0, "CLASSIFICATION_TYPE": "U", "NORAD_CAT_ID": 35996, "ELEMENT_SET_NO": 999, "REV_AT_EPOCH": 72374, "BSTAR": 0.00054952121, "MEAN_MOTION_DOT": 9.536e-05, "MEAN_MOTION_DDOT": 0}, "tle": {"line1": "1 35996U 93036AWN 25349.93410101  .00009536  00000+0  54952-3 0  9995", "line2": "2 35996  74.0159  96.8248 0087662 187.0066 172.9909 15.09228347723745"}}, "geometry": {"type": "Point", "coordinates": [78.19699540230876, 20.46645447587156]}}, {"type": "Feature", "properties": {"norad_id": 35997, "name": "COSMOS 2251 DEB", "group": "cosmos-2251-debris", "lat": -5.237456285947608, "lon": -19.789728515871566, "alt_km": 717.3220707994351, "timestamp": "2025-12-27T22:26:48.997490+00:00", "meta": {"OBJECT_NAME": "COSMOS 2251 DEB", "OBJECT_ID": "1993-036AWP", "EPOCH": "2025-12-26T17:28:19.417728", "MEAN_MOTION": 14.51384876, "ECCENTRICITY": 0.00153664, "INCLINATION": 74.0424, "RA_OF_ASC_NODE": 160.9776, "ARG_OF_PERICENTER": 237.5823, "MEAN_ANOMALY": 122.3852, "EPHEMERIS_TYPE": 0, "CLASSIFICATION_TYPE": "U", "NORAD_CAT_ID": 35997, "ELEMENT_SET_NO": 999, "REV_AT_EPOCH": 71087, "BSTAR": 0.00078489747, "MEAN_MOTION_DOT": 3.108e-05, "MEAN_MOTION_DDOT": 0}, "tle": {"line1": "1 35997U 93036AWP 25360.72800252  .00003108  00000+0  78490-3 0  9998", "line2": "2 35997  74.0424 160.9776 0015366 237.5823 122.3852 14.51384876710876"}}, "geometry": {"type": "Point", "coordinates": [-19.789728515871566, -5.237456285947608]}}, {"type": "Feature", "properties": {"norad_id": 36005, "name": "COSMOS 2251 DEB", "group": "cosmos-2251-debris", "lat": -0.4299614163641432, "lon": 65.45250270069168, "alt_km": 777.9191572785376, "timestamp": "2025-12-27T22:26:48.997500+00:00", "meta": {"OBJECT_NAME": "COSMOS 2251 DEB", "OBJECT_ID": "1993-036AWX", "EPOCH": "2025-12-27T04:12:06.060960", "MEAN_MOTION": 14.47379938, "ECCENTRICITY": 0.00614172, "INCLINATION": 74.0269, "RA_OF_ASC_NODE": 66.9975, "ARG_OF_PERICENTER": 201.271, "MEAN_ANOMALY": 158.5895, "EPHEMERIS_TYPE": 0, "CLASSIFICATION_TYPE": "U", "NORAD_CAT_ID": 36005, "ELEMENT_SET_NO": 999, "REV_AT_EPOCH": 87793, "BSTAR": 0.00021121944, "MEAN_MOTION_DOT": 7.64e-06, "MEAN_MOTION_DDOT": 0}, "tle": {"line1": "1 36005U 93036AWX 25361.17507015  .00000764  00000+0  21122-3 0  9995", "line2": "2 36005  74.0269  66.9975 0061417 201.2710 158.5895 14.47379938877938"}}, "geometry": {"type": "Point", "coordinates": [65.45250270069168, -0.4299614163641432]}}, {"type": "Feature", "properties": {"norad_id": 36045, "name": "COSMOS 2251 DEB", "group": "cosmos-2251-debris", "lat": -32.20439487502586, "lon": -140.28807707832507, "alt_km": 700.0343830483007, "timestamp": "2025-12-27T22:26:48.997510+00:00", "meta": {"OBJECT_NAME": "COSMOS 2251 DEB", "OBJECT_ID": "1993-036AXG", "EPOCH": "2025-12-25T18:51:09.820512", "MEAN_MOTION": 14.70126783, "ECCENTRICITY": 0.00481863, "INCLINATION": 73.7639, "RA_OF_ASC_NODE": 33.3725, "ARG_OF_PERICENTER": 42.7479, "MEAN_ANOMALY": 317.7422, "EPHEMERIS_TYPE": 0, "CLASSIFICATION_TYPE": "U", "NORAD_CAT_ID": 36045, "ELEMENT_SET_NO": 999, "REV_AT_EPOCH": 8580, "BSTAR": 0.0019792392, "MEAN_MOTION_DOT": 0.00012107, "MEAN_MOTION_DDOT": 0}, "tle": {"line1": "1 36045U 93036AXG 25359.78553033  .00012107  00000+0  19792-2 0  9997", "line2": "2 36045  73.7639  33.3725 0048186  42.7479 317.7422 14.70126783 85804"}}, "geometry": {"type": "Point", "coordinates": [-140.28807707832507, -32.20439487502586]}}, {"type": "Feature", "properties": {"norad_id": 36046, "name": "COSMOS 2251 DEB", "group": "cosmos-2251-debris", "lat": 15.931208037365835, "lon": -108.08614024139918, "alt_km": 637.5575414315344, "timestamp": "2025-12-27T22:26:48.997520+00:00", "meta": {"OBJECT_NAME": "COSMOS 2251 DEB", "OBJECT_ID": "1993-036AXH", "EPOCH": "2025-12-26T11:06:22.807872", "MEAN_MOTION": 14.65349248, "ECCENTRICITY": 0.0056191, "INCLINATION": 74.0154, "RA_OF_ASC_NODE": 250.057, "ARG_OF_PERICENTER": 32.301, "MEAN_ANOMALY": 139.7691, "EPHEMERIS_TYPE": 0, "CLASSIFICATION_TYPE": "U", "NORAD_CAT_ID": 36046, "ELEMENT_SET_NO": 999, "REV_AT_EPOCH": 64204, "BSTAR": 0.00051321, "MEAN_MOTION_DOT": 2.805e-05, "MEAN_MOTION_DDOT": 0}, "tle": {"line1": "1 36046U 93036AXH 25360.46276398  .00002805  00000+0  51321-3 0  9990", "line2": "2 36046  74.0154 250.0570 0056191  32.3010 139.7691 14.65349248642040"}}, "geometry": {"type": "Point", "coordinates": [-108.08614024139918, 15.931208037365835]}}, {"type": "Feature", "properties": {"norad_id": 36047, "name": "COSMOS 2251 DEB", "group": "cosmos-2251-debris", "lat": -23.17447197784114, "lon": 130.49193648992403, "alt_km": 585.4760995185679, "timestamp": "2025-12-27T22:26:48.997530+00:00", "meta": {"OBJECT_NAME": "COSMOS 2251 DEB", "OBJECT_ID": "1993-036AXJ", "EPOCH": "2025-12-21T21:08:53.075040", "MEAN_MOTION": 14.96393257, "ECCENTRICITY": 0.000841, "INCLINATION": 74.036, "RA_OF_ASC_NODE": 315.6865, "ARG_OF_PERICENTER": 344.906, "MEAN_ANOMALY": 15.1873, "EPHEMERIS_TYPE": 0, "CLASSIFICATION_TYPE": "U", "NORAD_CAT_ID": 36047, "ELEMENT_SET_NO": 999, "REV_AT_EPOCH": 66076, "BSTAR": 0.0028311075, "MEAN_MOTION_DOT": 0.00032218, "MEAN_MOTION_DDOT": 0}, "tle": {"line1": "1 36047U 93036AXJ 25355.88116985  .00032218  00000+0  28311-2 0  9999", "line2": "2 36047  74.0360 315.6865 0008410 344.9060  15.1873 14.96393257660764"}}, "geometry": {"type": "Point", "coordinates": [130.49193648992403, -23.17447197784114]}}]}